{
  "norad_id": 60039,
  "name": "STARLINK-11140 [DTC]",
  "history": [
    {
      "epoch": "2026-03-28T15:21:23.368320Z",
      "apogee_km": 360.38056762780707,
      "perigee_km": 358.98058389191465,
      "latitude_deg": 7.122415542700672e-05,
      "longitude_deg": 116.71818055218463,
      "height_km": 360.47378137722217,
      "semi_major_axis_km": 6737.81757575986,
      "eccentricity": 0.00010389,
      "inclination_deg": 53.1599,
      "raan_deg": 173.1229,
      "arg_perigee_deg": 80.0839,
      "mean_anomaly_deg": 280.0297,
      "mean_motion_rev_day": 15.69726136
    }
  ]
}